[
    {
        "Altitude(m)": 571642.8010016388,
        "Argument of Periapsis(deg)": 0.026491964442854003,
        "Eccentricity": 0.0,
        "Inclination(deg)": 53.0,
        "Latitude(deg)": -52.6290215492881,
        "Longitude(deg)": -7.072353014947566,
        "Mean Anomaly(deg)": -83.26992852968968,
        "RAAN(deg)": 174.96057347411207,
        "Satellite Name": "Starlink Shell 1 784",
        "Satellite Number": 784,
        "Semi-Major Axis(m)": 6931778.249405717,
        "Time(s)": 760
    },
    {
        "Altitude(m)": 571603.8134583329,
        "Argument of Periapsis(deg)": 0.02684054292236524,
        "Eccentricity": 0.0,
        "Inclination(deg)": 53.0,
        "Latitude(deg)": -52.528519159579645,
        "Longitude(deg)": -6.101789175558405,
        "Mean Anomaly(deg)": -82.64309732613286,
        "RAAN(deg)": 174.9600547040346,
        "Satellite Name": "Starlink Shell 1 784",
        "Satellite Number": 784,
        "Semi-Major Axis(m)": 6931778.249405717,
        "Time(s)": 770
    },
    {
        "Altitude(m)": 571561.4407167832,
        "Argument of Periapsis(deg)": 0.027189121401876473,
        "Eccentricity": 0.0,
        "Inclination(deg)": 53.0,
        "Latitude(deg)": -52.419409313527865,
        "Longitude(deg)": -5.136022582383454,
        "Mean Anomaly(deg)": -82.01626612257621,
        "RAAN(deg)": 174.95953593395714,
        "Satellite Name": "Starlink Shell 1 784",
        "Satellite Number": 784,
        "Semi-Major Axis(m)": 6931778.249405717,
        "Time(s)": 780
    },
    {
        "Altitude(m)": 571515.6996571878,
        "Argument of Periapsis(deg)": 0.02753769988138771,
        "Eccentricity": 0.0,
        "Inclination(deg)": 53.0,
        "Latitude(deg)": -52.30176735102308,
        "Longitude(deg)": -4.175399173042008,
        "Mean Anomaly(deg)": -81.38943491901951,
        "RAAN(deg)": 174.95901716387965,
        "Satellite Name": "Starlink Shell 1 784",
        "Satellite Number": 784,
        "Semi-Major Axis(m)": 6931778.249405717,
        "Time(s)": 790
    },
    {
        "Altitude(m)": 571466.6085006896,
        "Argument of Periapsis(deg)": 0.02788627836089895,
        "Eccentricity": 0.0,
        "Inclination(deg)": 53.0,
        "Latitude(deg)": -52.17567353661715,
        "Longitude(deg)": -3.2202517110281237,
        "Mean Anomaly(deg)": -80.76260371546279,
        "RAAN(deg)": 174.9584983938022,
        "Satellite Name": "Starlink Shell 1 784",
        "Satellite Number": 784,
        "Semi-Major Axis(m)": 6931778.249405717,
        "Time(s)": 800
    },
    {
        "Altitude(m)": 571414.1868014709,
        "Argument of Periapsis(deg)": 0.02823485684041019,
        "Eccentricity": 0.0,
        "Inclination(deg)": 53.0,
        "Latitude(deg)": -52.04121280480144,
        "Longitude(deg)": -2.270898671623929,
        "Mean Anomaly(deg)": -80.13577251190604,
        "RAAN(deg)": 174.95797962372473,
        "Satellite Name": "Starlink Shell 1 784",
        "Satellite Number": 784,
        "Semi-Major Axis(m)": 6931778.249405717,
        "Time(s)": 810
    },
    {
        "Altitude(m)": 571358.4554382975,
        "Argument of Periapsis(deg)": 0.028583435319921423,
        "Eccentricity": 0.0,
        "Inclination(deg)": 53.0,
        "Latitude(deg)": -51.89847449661322,
        "Longitude(deg)": -1.3276432139585181,
        "Mean Anomaly(deg)": -79.5089413083493,
        "RAAN(deg)": 174.9574608536472,
        "Satellite Name": "Starlink Shell 1 784",
        "Satellite Number": 784,
        "Semi-Major Axis(m)": 6931778.249405717,
        "Time(s)": 820
    },
    {
        "Altitude(m)": 571299.4366054789,
        "Argument of Periapsis(deg)": 0.028932013799432665,
        "Eccentricity": 0.0,
        "Inclination(deg)": 53.0,
        "Latitude(deg)": -51.74755208919249,
        "Longitude(deg)": -0.3907737510218548,
        "Mean Anomaly(deg)": -78.8821101047926,
        "RAAN(deg)": 174.95694208356977,
        "Satellite Name": "Starlink Shell 1 784",
        "Satellite Number": 784,
        "Semi-Major Axis(m)": 6931778.249405717,
        "Time(s)": 830
    },
    {
        "Altitude(m)": 571237.1538032527,
        "Argument of Periapsis(deg)": 0.029280592278943897,
        "Eccentricity": 0.0,
        "Inclination(deg)": 53.0,
        "Latitude(deg)": -51.5885429200901,
        "Longitude(deg)": 0.5394369081862004,
        "Mean Anomaly(deg)": -78.25527890123593,
        "RAAN(deg)": 174.9564233134923,
        "Satellite Name": "Starlink Shell 1 784",
        "Satellite Number": 784,
        "Semi-Major Axis(m)": 6931778.249405717,
        "Time(s)": 840
    },
    {
        "Altitude(m)": 571171.6318276062,
        "Argument of Periapsis(deg)": 0.029629170758455132,
        "Eccentricity": 0.0,
        "Inclination(deg)": 53.0,
        "Latitude(deg)": -51.42154790802955,
        "Longitude(deg)": 1.4627323329366988,
        "Mean Anomaly(deg)": -77.62844769767918,
        "RAAN(deg)": 174.95590454341482,
        "Satellite Name": "Starlink Shell 1 784",
        "Satellite Number": 784,
        "Semi-Major Axis(m)": 6931778.249405717,
        "Time(s)": 850
    },
    {
        "Altitude(m)": 571102.8967595082,
        "Argument of Periapsis(deg)": 0.02997774923796637,
        "Eccentricity": 0.0,
        "Inclination(deg)": 53.0,
        "Latitude(deg)": -51.24667127178012,
        "Longitude(deg)": 2.3788714825792963,
        "Mean Anomaly(deg)": -77.00161649412253,
        "RAAN(deg)": 174.95538577333733,
        "Satellite Name": "Starlink Shell 1 784",
        "Satellite Number": 784,
        "Semi-Major Axis(m)": 6931778.249405717,
        "Time(s)": 860
    },
    {
        "Altitude(m)": 571030.9759536332,
        "Argument of Periapsis(deg)": 0.030326327717477602,
        "Eccentricity": 0.0,
        "Inclination(deg)": 53.0,
        "Latitude(deg)": -51.0640202487163,
        "Longitude(deg)": 3.2876301610178955,
        "Mean Anomaly(deg)": -76.37478529056568,
        "RAAN(deg)": 174.9548670032599,
        "Satellite Name": "Starlink Shell 1 784",
        "Satellite Number": 784,
        "Semi-Major Axis(m)": 6931778.249405717,
        "Time(s)": 870
    },
    {
        "Altitude(m)": 570955.898026466,
        "Argument of Periapsis(deg)": 0.030674906196988847,
        "Eccentricity": 0.0,
        "Inclination(deg)": 53.0,
        "Latitude(deg)": -50.87370481457605,
        "Longitude(deg)": 4.188799874219966,
        "Mean Anomaly(deg)": -75.747954087009,
        "RAAN(deg)": 174.95434823318237,
        "Satellite Name": "Starlink Shell 1 784",
        "Satellite Number": 784,
        "Semi-Major Axis(m)": 6931778.249405717,
        "Time(s)": 880
    },
    {
        "Altitude(m)": 570877.6928439023,
        "Argument of Periapsis(deg)": 0.031023484676500086,
        "Eccentricity": 0.0,
        "Inclination(deg)": 53.0,
        "Latitude(deg)": -50.675837405816104,
        "Longitude(deg)": 5.082188296966497,
        "Mean Anomaly(deg)": -75.12112288345234,
        "RAAN(deg)": 174.95382946310494,
        "Satellite Name": "Starlink Shell 1 784",
        "Satellite Number": 784,
        "Semi-Major Axis(m)": 6931778.249405717,
        "Time(s)": 890
    },
    {
        "Altitude(m)": 570796.3915082746,
        "Argument of Periapsis(deg)": 0.03137206315601132,
        "Eccentricity": 0.0,
        "Inclination(deg)": 53.0,
        "Latitude(deg)": -50.47053264587679,
        "Longitude(deg)": 5.967619672049697,
        "Mean Anomaly(deg)": -74.4942916798956,
        "RAAN(deg)": 174.95331069302745,
        "Satellite Name": "Starlink Shell 1 784",
        "Satellite Number": 784,
        "Semi-Major Axis(m)": 6931778.249405717,
        "Time(s)": 900
    },
    {
        "Altitude(m)": 570712.0263448459,
        "Argument of Periapsis(deg)": 0.03172064163552255,
        "Eccentricity": 0.0,
        "Inclination(deg)": 53.0,
        "Latitude(deg)": -50.2579070765572,
        "Longitude(deg)": 6.844933633565275,
        "Mean Anomaly(deg)": -73.86746047633893,
        "RAAN(deg)": 174.95279192294998,
        "Satellite Name": "Starlink Shell 1 784",
        "Satellite Number": 784,
        "Semi-Major Axis(m)": 6931778.249405717,
        "Time(s)": 910
    },
    {
        "Altitude(m)": 570624.6308877735,
        "Argument of Periapsis(deg)": 0.0320692201150338,
        "Eccentricity": 0.0,
        "Inclination(deg)": 53.0,
        "Latitude(deg)": -50.03807889558145,
        "Longitude(deg)": 7.71398548481972,
        "Mean Anomaly(deg)": -73.24062927278217,
        "RAAN(deg)": 174.9522731528725,
        "Satellite Name": "Starlink Shell 1 784",
        "Satellite Number": 784,
        "Semi-Major Axis(m)": 6931778.249405717,
        "Time(s)": 920
    },
    {
        "Altitude(m)": 570534.2398655177,
        "Argument of Periapsis(deg)": 0.032417798594545036,
        "Eccentricity": 0.0,
        "Inclination(deg)": 53.0,
        "Latitude(deg)": -49.81116770133148,
        "Longitude(deg)": 8.57464642292335,
        "Mean Anomaly(deg)": -72.61379806922552,
        "RAAN(deg)": 174.95175438279506,
        "Satellite Name": "Starlink Shell 1 784",
        "Satellite Number": 784,
        "Semi-Major Axis(m)": 6931778.249405717,
        "Time(s)": 930
    },
    {
        "Altitude(m)": 570440.8891857496,
        "Argument of Periapsis(deg)": 0.03276637707405627,
        "Eccentricity": 0.0,
        "Inclination(deg)": 53.0,
        "Latitude(deg)": -49.57729424560357,
        "Longitude(deg)": 9.426802202259374,
        "Mean Anomaly(deg)": -71.98696686566873,
        "RAAN(deg)": 174.95123561271754,
        "Satellite Name": "Starlink Shell 1 784",
        "Satellite Number": 784,
        "Semi-Major Axis(m)": 6931778.249405717,
        "Time(s)": 940
    }
]